[Satellite]
VERSION=1.1
NAME=NANOSAT-1
NICKNAME=NANOSAT-1
TLE1=1 28493U 04049B   17186.23496392  .00000035  00000-0  13477-4 0  9998
TLE2=2 28493  98.2017 255.9731 0003451 317.1831  42.9108 14.73323447673574
